{"type": "FeatureCollection", "features": [ {"type": "Feature", "properties": {"norad_id": 31552, "name": "FENGYUN 1C DEB", "group": "fengyun-1c-debris", "lat": 39.253093225926484, "lon": 113.63356606129251, "alt_km": 701.6607367683528, "timestamp": "2025-12-24T16:52:41.815270+00:00", "meta": {"OBJECT_NAME": "FENGYUN 1C DEB", "OBJECT_ID": "1999-025BYT", "EPOCH": "2025-12-24T01:44:59.859456", "MEAN_MOTION": 14.45885518, "ECCENTRICITY": 0.00856283, "INCLINATION": 98.6213, "RA_OF_ASC_NODE": 120.1143, "ARG_OF_PERICENTER": 345.73, "MEAN_ANOMALY": 14.1474, "EPHEMERIS_TYPE": 0, "CLASSIFICATION_TYPE": "U", "NORAD_CAT_ID": 31552, "ELEMENT_SET_NO": 999, "REV_AT_EPOCH": 96040, "BSTAR": 0.0027047524, "MEAN_MOTION_DOT": 0.00010022, "MEAN_MOTION_DDOT": 0}, "tle": {"line1": "1 31552U 99025BYT 25358.07291504  .00010022  00000+0  27048-2 0  9999", "line2": "2 31552  98.6213 120.1143 0085628 345.7300  14.1474 14.45885518960409"}}, "geometry": {"type": "Point", "coordinates": [113.63356606129251, 39.253093225926484]}}, {"type": "Feature", "properties": {"norad_id": 31553, "name": "FENGYUN 1C DEB", "group": "fengyun-1c-debris", "lat": -2.6366159993495653, "lon": 54.28281236331302, "alt_km": 787.0262077274319, "timestamp": "2025-12-24T16:52:41.815280+00:00", "meta": {"OBJECT_NAME": "FENGYUN 1C DEB", "OBJECT_ID": "1999-025BYU", "EPOCH": "2025-12-23T02:24:46.896192", "MEAN_MOTION": 14.3023876, "ECCENTRICITY": 0.00291199, "INCLINATION": 99.0026, "RA_OF_ASC_NODE": 52.2072, "ARG_OF_PERICENTER": 72.3355, "MEAN_ANOMALY": 317.8635, "EPHEMERIS_TYPE": 0, "CLASSIFICATION_TYPE": "U", "NORAD_CAT_ID": 31553, "ELEMENT_SET_NO": 999, "REV_AT_EPOCH": 96058, "BSTAR": 0.0017662347, "MEAN_MOTION_DOT": 4.555e-05, "MEAN_MOTION_DDOT": 0}, "tle": {"line1": "1 31553U 99025BYU 25357.10054278  .00004555  00000+0  17662-2 0  9993", "line2": "2 31553  99.0026  52.2072 0029119  72.3355 317.8635 14.30238760960585"}}, "geometry": {"type": "Point", "coordinates": [54.28281236331302, -2.6366159993495653]}}, {"type": "Feature", "properties": {"norad_id": 31555, "name": "FENGYUN 1C DEB", "group": "fengyun-1c-debris", "lat": 4.207332251909632, "lon": -46.986420574191385, "alt_km": 847.28034722752, "timestamp": "2025-12-24T16:52:41.815291+00:00", "meta": {"OBJECT_NAME": "FENGYUN 1C DEB", "OBJECT_ID": "1999-025BYW", "EPOCH": "2025-12-24T03:33:25.219584", "MEAN_MOTION": 14.44341982, "ECCENTRICITY": 0.01547995, "INCLINATION": 99.1057, "RA_OF_ASC_NODE": 313.0954, "ARG_OF_PERICENTER": 162.3817, "MEAN_ANOMALY": 198.2825, "EPHEMERIS_TYPE": 0, "CLASSIFICATION_TYPE": "U", "NORAD_CAT_ID": 31555, "ELEMENT_SET_NO": 999, "REV_AT_EPOCH": 96728, "BSTAR": 0.0011633375, "MEAN_MOTION_DOT": 4.583e-05, "MEAN_MOTION_DDOT": 0}, "tle": {"line1": "1 31555U 99025BYW 25358.14820856  .00004583  00000+0  11633-2 0  9996", "line2": "2 31555  99.1057 313.0954 0154799 162.3817 198.2825 14.44341982967287"}}, "geometry": {"type": "Point", "coordinates": [-46.986420574191385, 4.207332251909632]}}, {"type": "Feature", "properties": {"norad_id": 31558, "name": "FENGYUN 1C DEB", "group": "fengyun-1c-debris", "lat": 46.31351510897802, "lon": -114.93273149868837, "alt_km": 909.1983097640423, "timestamp": "2025-12-24T16:52:41.815301+00:00", "meta": {"OBJECT_NAME": "FENGYUN 1C DEB", "OBJECT_ID": "1999-025BYZ", "EPOCH": "2025-12-23T11:27:39.473280", "MEAN_MOTION": 14.38721727, "ECCENTRICITY": 0.02108186, "INCLINATION": 98.7911, "RA_OF_ASC_NODE": 253.1348, "ARG_OF_PERICENTER": 230.26, "MEAN_ANOMALY": 311.9966, "EPHEMERIS_TYPE": 0, "CLASSIFICATION_TYPE": "U", "NORAD_CAT_ID": 31558, "ELEMENT_SET_NO": 999, "REV_AT_EPOCH": 97589, "BSTAR": 0.00021451243, "MEAN_MOTION_DOT": 7.96e-06, "MEAN_MOTION_DDOT": 0}, "tle": {"line1": "1 31558U 99025BYZ 25357.47754020  .00000796  00000+0  21451-3 0  9995", "line2": "2 31558  98.7911 253.1348 0210818 230.2600 311.9966 14.38721727975893"}}, "geometry": {"type": "Point", "coordinates": [-114.93273149868837, 46.31351510897802]}}, {"type": "Feature", "properties": {"norad_id": 31559, "name": "FENGYUN 1C DEB", "group": "fengyun-1c-debris", "lat": -79.76720816034609, "lon": 73.85414145938586, "alt_km": 700.7527086566915, "timestamp": "2025-12-24T16:52:41.815311+00:00", "meta": {"OBJECT_NAME": "FENGYUN 1C DEB", "OBJECT_ID": "1999-025BZA", "EPOCH": "2025-12-23T20:07:32.848896", "MEAN_MOTION": 14.63710844, "ECCENTRICITY": 0.00547868, "INCLINATION": 98.8671, "RA_OF_ASC_NODE": 312.7831, "ARG_OF_PERICENTER": 158.7588, "MEAN_ANOMALY": 231.812, "EPHEMERIS_TYPE": 0, "CLASSIFICATION_TYPE": "U", "NORAD_CAT_ID": 31559, "ELEMENT_SET_NO": 999, "REV_AT_EPOCH": 97719, "BSTAR": 0.0012923486, "MEAN_MOTION_DOT": 6.826e-05, "MEAN_MOTION_DDOT": 0}, "tle": {"line1": "1 31559U 99025BZA 25357.83857464  .00006826  00000+0  12923-2 0  9995", "line2": "2 31559  98.8671 312.7831 0054786 158.7588 231.8120 14.63710844977199"}}, "geometry": {"type": "Point", "coordinates": [73.85414145938586, -79.76720816034609]}}, {"type": "Feature", "properties": {"norad_id": 31560, "name": "FENGYUN 1C DEB", "group": "fengyun-1c-debris", "lat": -7.492663774798284, "lon": -146.6478968370522, "alt_km": 818.0846195955282, "timestamp": "2025-12-24T16:52:41.815321+00:00", "meta": {"OBJECT_NAME": "FENGYUN 1C DEB", "OBJECT_ID": "1999-025BZB", "EPOCH": "2025-12-23T19:42:37.813536", "MEAN_MOTION": 14.21225501, "ECCENTRICITY": 0.01197159, "INCLINATION": 98.5876, "RA_OF_ASC_NODE": 33.6331, "ARG_OF_PERICENTER": 276.0602, "MEAN_ANOMALY": 82.6945, "EPHEMERIS_TYPE": 0, "CLASSIFICATION_TYPE": "U", "NORAD_CAT_ID": 31560, "ELEMENT_SET_NO": 999, "REV_AT_EPOCH": 96776, "BSTAR": 5.5168508e-05, "MEAN_MOTION_DOT": 8.5e-07, "MEAN_MOTION_DDOT": 0}, "tle": {"line1": "1 31560U 99025BZB 25357.82127099  .00000085  00000+0  55169-4 0  9992", "line2": "2 31560  98.5876  33.6331 0119715 276.0602  82.6945 14.21225501967768"}}, "geometry": {"type": "Point", "coordinates": [-146.6478968370522, -7.492663774798284]}}, {"type": "Feature", "properties": {"norad_id": 31561, "name": "FENGYUN 1C DEB", "group": "fengyun-1c-debris", "lat": 56.59569621211453, "lon": -172.31013137465672, "alt_km": 841.8217701795029, "timestamp": "2025-12-24T16:52:41.815332+00:00", "meta": {"OBJECT_NAME": "FENGYUN 1C DEB", "OBJECT_ID": "1999-025BZC", "EPOCH": "2025-12-23T18:53:24.694368", "MEAN_MOTION": 14.0278062, "ECCENTRICITY": 0.00567763, "INCLINATION": 98.7176, "RA_OF_ASC_NODE": 353.3594, "ARG_OF_PERICENTER": 151.5664, "MEAN_ANOMALY": 26.9346, "EPHEMERIS_TYPE": 0, "CLASSIFICATION_TYPE": "U", "NORAD_CAT_ID": 31561, "ELEMENT_SET_NO": 999, "REV_AT_EPOCH": 95333, "BSTAR": 0.00019368279, "MEAN_MOTION_DOT": 2.62e-06, "MEAN_MOTION_DDOT": 0}, "tle": {"line1": "1 31561U 99025BZC 25357.78709137  .00000262  00000+0  19368-3 0  9994", "line2": "2 31561  98.7176 353.3594 0056776 151.5664  26.9346 14.02780620953330"}}, "geometry": {"type": "Point", "coordinates": [-172.31013137465672, 56.59569621211453]}}, {"type": "Feature", "properties": {"norad_id": 31562, "name": "FENGYUN 1C DEB", "group": "fengyun-1c-debris", "lat": -35.95681128864318, "lon": -35.53935300114142, "alt_km": 722.9149542284258, "timestamp": "2025-12-24T16:52:41.815342+00:00", "meta": {"OBJECT_NAME": "FENGYUN 1C DEB", "OBJECT_ID": "1999-025BZD", "EPOCH": "2025-12-22T08:55:24.100608", "MEAN_MOTION": 14.42118471, "ECCENTRICITY": 0.00571743, "INCLINATION": 99.2584, "RA_OF_ASC_NODE": 148.7288, "ARG_OF_PERICENTER": 254.8118, "MEAN_ANOMALY": 104.6741, "EPHEMERIS_TYPE": 0, "CLASSIFICATION_TYPE": "U", "NORAD_CAT_ID": 31562, "ELEMENT_SET_NO": 999, "REV_AT_EPOCH": 97129, "BSTAR": 0.00099763212, "MEAN_MOTION_DOT": 3.294e-05, "MEAN_MOTION_DDOT": 0}, "tle": {"line1": "1 31562U 99025BZD 25356.37180672  .00003294  00000+0  99763-3 0  9991", "line2": "2 31562  99.2584 148.7288 0057174 254.8118 104.6741 14.42118471971291"}}, "geometry": {"type": "Point", "coordinates": [-35.53935300114142, -35.95681128864318]}}, {"type": "Feature", "properties": {"norad_id": 31563, "name": "FENGYUN 1C DEB", "group": "fengyun-1c-debris", "lat": 9.946806321698535, "lon": -25.16097904041719, "alt_km": 725.7311792682158, "timestamp": "2025-12-24T16:52:41.815352+00:00", "meta": {"OBJECT_NAME": "FENGYUN 1C DEB", "OBJECT_ID": "1999-025BZE", "EPOCH": "2025-12-23T15:31:59.271456", "MEAN_MOTION": 14.6536139, "ECCENTRICITY": 0.01136597, "INCLINATION": 98.9535, "RA_OF_ASC_NODE": 152.1051, "ARG_OF_PERICENTER": 45.5494, "MEAN_ANOMALY": 315.4936, "EPHEMERIS_TYPE": 0, "CLASSIFICATION_TYPE": "U", "NORAD_CAT_ID": 31563, "ELEMENT_SET_NO": 999, "REV_AT_EPOCH": 98704, "BSTAR": 0.00048947693, "MEAN_MOTION_DOT": 2.846e-05, "MEAN_MOTION_DDOT": 0}, "tle": {"line1": "1 31563U 99025BZE 25357.64721379  .00002846  00000+0  48948-3 0  9999", "line2": "2 31563  98.9535 152.1051 0113659  45.5494 315.4936 14.65361390987047"}}, "geometry": {"type": "Point", "coordinates": [-25.16097904041719, 9.946806321698535]}}, {"type": "Feature", "properties": {"norad_id": 31565, "name": "FENGYUN 1C DEB", "group": "fengyun-1c-debris", "lat": 61.45876157649459, "lon": -146.59370882472746, "alt_km": 743.1927471715235, "timestamp": "2025-12-24T16:52:41.815362+00:00", "meta": {"OBJECT_NAME": "FENGYUN 1C DEB", "OBJECT_ID": "1999-025BZG", "EPOCH": "2025-12-22T09:31:28.862112", "MEAN_MOTION": 14.39101299, "ECCENTRICITY": 0.00571858, "INCLINATION": 100.7166, "RA_OF_ASC_NODE": 230.9071, "ARG_OF_PERICENTER": 356.658, "MEAN_ANOMALY": 3.421, "EPHEMERIS_TYPE": 0, "CLASSIFICATION_TYPE": "U", "NORAD_CAT_ID": 31565, "ELEMENT_SET_NO": 999, "REV_AT_EPOCH": 64492, "BSTAR": 0.0037078807, "MEAN_MOTION_DOT": 0.00011648, "MEAN_MOTION_DDOT": 0}, "tle": {"line1": "1 31565U 99025BZG 25356.39686183  .00011648  00000+0  37079-2 0  9997", "line2": "2 31565 100.7166 230.9071 0057185 356.6580   3.4210 14.39101299644928"}}, "geometry": {"type": "Point", "coordinates": [-146.59370882472746, 61.45876157649459]}}]}